METEOR-M2 4             
1 59051U 24039A   24268.54079993  .00000141  00000+0  82697-4 0  9997
2 59051  98.6097 228.0399 0006702 187.3606 172.7474 14.22270231 29614
